NORAD_CAT_ID,OBJECT_NAME,OBJECT_TYPE,EPOCH,MEAN_MOTION,ECCENTRICITY,INCLINATION,RA_OF_ASC_NODE,ARG_OF_PERICENTER,MEAN_ANOMALY,BSTAR,MEAN_MOTION_DOT,MEAN_MOTION_DDOT,TLE_LINE0,TLE_LINE1,TLE_LINE2,SEMIMAJOR_AXIS,PERIOD,APOGEE,PERIGEE,DECAYED
51996.0,STARLINK-3538,PAYLOAD,2023-12-11 11:17:17,15.08850828,0.0001563,53.219,96.7313,112.6508,247.4649,0.0001139,1.526e-05,0.0,0 STARLINK-3538,1 51996U 22025AS  23345.47034573  .00001526  00000-0  11390-3 0  9992,2 51996  53.2190  96.7313 0001563 112.6508 247.4649 15.08850828 98760,6917.847,95.437,540.794,538.631,0.0
51996.0,STARLINK-3538,PAYLOAD,2023-12-11 14:28:03,15.08856468,0.0001336,53.2176,96.1378,101.3493,258.7649,9.872e-05,1.284e-05,0.0,0 STARLINK-3538,1 51996U 22025AS  23345.60282297  .00001284  00000-0  98720-4 0  9999,2 51996  53.2176  96.1378 0001336 101.3493 258.7649 15.08856468 97260,6917.83,95.437,540.619,538.771,0.0
51996.0,STARLINK-3538,PAYLOAD,2023-12-12 11:08:05,15.08839025,0.000134,53.2179,92.2719,98.9363,261.1781,-2.7961e-06,-3.32e-06,0.0,0 STARLINK-3538,1 51996U 22025AS  23346.46395659 -.00000332  00000-0 -27961-5 0  9996,2 51996  53.2179  92.2719 0001340  98.9363 261.1781 15.08839025 98919,6917.883,95.438,540.675,538.821,0.0
51996.0,STARLINK-3538,PAYLOAD,2023-12-12 12:43:28,15.0883925,0.0001342,53.218,91.9742,106.4044,253.7095,-6.5279e-06,-3.92e-06,0.0,0 STARLINK-3538,1 51996U 22025AS  23346.53019606 -.00000392  00000-0 -65279-5 0  9999,2 51996  53.2180  91.9742 0001342 106.4044 253.7095 15.08839250 97404,6917.883,95.438,540.676,538.819,0.0
51996.0,STARLINK-3538,PAYLOAD,2023-12-13 10:58:53,15.08828611,0.0001685,53.2173,87.8169,118.2901,241.8262,0.00011803,1.59e-05,0.0,0 STARLINK-3538,1 51996U 22025AS  23347.45755923  .00001590  00000-0  11803-3 0  9991,2 51996  53.2173  87.8169 0001685 118.2901 241.8262 15.08828611 97544,6917.915,95.438,540.946,538.615,0.0
51996.0,STARLINK-3538,PAYLOAD,2023-12-14 12:25:03,15.0883768,0.0001375,53.217,83.0613,79.585,280.5297,0.00012928,1.77e-05,0.0,0 STARLINK-3538,1 51996U 22025AS  23348.51739969  .00001770  00000-0  12928-3 0  9990,2 51996  53.2170  83.0613 0001375  79.5850 280.5297 15.08837680 99222,6917.887,95.438,540.704,538.801,0.0
51996.0,STARLINK-3538,PAYLOAD,2023-12-14 14:00:26,15.08839787,0.0001375,53.2172,82.7624,88.5549,271.5601,0.00014657,2.045e-05,0.0,0 STARLINK-3538,1 51996U 22025AS  23348.58363794  .00002045  00000-0  14657-3 0  9993,2 51996  53.2172  82.7624 0001375  88.5549 271.5601 15.08839787 97718,6917.881,95.438,540.697,538.795,0.0
51996.0,STARLINK-3538,PAYLOAD,2023-12-15 12:15:50,15.08837092,0.000136,53.2184,78.5948,116.0905,244.0227,6.9515e-05,8.19e-06,0.0,0 STARLINK-3538,1 51996U 22025AS  23349.51100321  .00000819  00000-0  69515-4 0  9993,2 51996  53.2184  78.5948 0001360 116.0905 244.0227 15.08837092 99370,6917.889,95.438,540.695,538.813,0.0
51996.0,STARLINK-3538,PAYLOAD,2023-12-16 12:06:37,15.08845634,0.0001342,53.217,74.1363,103.6006,256.5135,0.00014623,2.04e-05,0.0,0 STARLINK-3538,1 51996U 22025AS  23350.50460132  .00002040  00000-0  14623-3 0  9990,2 51996  53.2170  74.1363 0001342 103.6006 256.5135 15.08845634 98008,6917.863,95.437,540.657,538.8,0.0
51996.0,STARLINK-3538,PAYLOAD,2023-12-17 11:57:25,15.08840499,0.0001399,53.217,69.6798,70.9264,289.1879,0.00010021,1.307e-05,0.0,0 STARLINK-3538,1 51996U 22025AS  23351.49820623  .00001307  00000-0  10021-3 0  9997,2 51996  53.2170  69.6798 0001399  70.9264 289.1879 15.08840499 99678,6917.879,95.438,540.712,538.776,0.0
51996.0,STARLINK-3538,PAYLOAD,2023-12-18 11:48:12,15.08816834,0.0001498,53.2163,65.2177,98.2506,261.8656,0.0012762,0.00020068,0.0,0 STARLINK-3538,1 51996U 22025AS  23352.49181681  .00020068  00000-0  12762-2 0  9990,2 51996  53.2163  65.2177 0001498  98.2506 261.8656 15.08816834 99828,6917.951,95.439,540.853,538.78,0.0
51996.0,STARLINK-3538,PAYLOAD,2023-12-19 11:38:58,15.08839739,0.0001416,53.217,60.7559,91.0001,269.1153,1.7422e-05,-1.1e-07,0.0,0 STARLINK-3538,1 51996U 22025AS  23353.48540422 -.00000011  00000-0  17422-4 0  9999,2 51996  53.2170  60.7559 0001416  91.0001 269.1153 15.08839739 98451,6917.881,95.438,540.726,538.767,0.0
51996.0,STARLINK-3538,PAYLOAD,2023-12-20 09:54:23,15.08833783,0.000146,53.2172,56.5933,85.823,274.2929,-0.00012664,-2.303e-05,0.0,0 STARLINK-3538,1 51996U 22025AS  23354.41277044 -.00002303  00000-0 -12664-3 0  9999,2 51996  53.2172  56.5933 0001460  85.8230 274.2929 15.08833783100114,6917.899,95.438,540.774,538.754,0.0
51996.0,STARLINK-3538,PAYLOAD,2023-12-21 11:20:33,15.08849338,0.000156,53.2177,51.8352,74.0996,286.0168,0.00029953,4.483e-05,0.0,0 STARLINK-3538,1 51996U 22025AS  23355.47260693  .00004483  00000-0  29953-3 0  9996,2 51996  53.2177  51.8352 0001560  74.0996 286.0168 15.08849338100278,6917.852,95.437,540.796,538.638,0.0
51996.0,STARLINK-3538,PAYLOAD,2023-12-22 11:11:20,15.08842414,0.0001643,53.218,47.3768,84.3539,275.764,0.00014179,1.969e-05,0.0,0 STARLINK-3538,1 51996U 22025AS  23356.46621266  .00001969  00000-0  14179-3 0  9993,2 51996  53.2180  47.3768 0001643  84.3539 275.7640 15.08842414100427,6917.873,95.437,540.875,538.601,0.0
51996.0,STARLINK-3538,PAYLOAD,2023-12-23 11:02:07,15.08845563,0.0001664,53.2187,42.9175,81.8832,278.2348,6.4439e-05,7.38e-06,0.0,0 STARLINK-3538,1 51996U 22025AS  23357.45981291  .00000738  00000-0  64439-4 0  9998,2 51996  53.2187  42.9175 0001664  81.8832 278.2348 15.08845563 99055,6917.863,95.437,540.88,538.577,0.0
51996.0,STARLINK-3538,PAYLOAD,2023-12-24 02:55:59,15.08840888,0.0001473,53.217,39.9436,90.612,269.5041,0.00022593,3.31e-05,0.0,0 STARLINK-3538,1 51996U 22025AS  23358.12221760  .00003310  00000-0  22593-3 0  9994,2 51996  53.2170  39.9436 0001473  90.6120 269.5041 15.08840888100678,6917.878,95.437,540.762,538.724,0.0
51996.0,STARLINK-3538,PAYLOAD,2023-12-24 09:17:31,15.08847287,0.0001488,53.2176,38.7551,108.2363,251.8791,0.00016151,2.284e-05,0.0,0 STARLINK-3538,1 51996U 22025AS  23358.38717516  .00002284  00000-0  16151-3 0  9993,2 51996  53.2176  38.7551 0001488 108.2363 251.8791 15.08847287 99190,6917.858,95.437,540.752,538.694,0.0
51996.0,STARLINK-3538,PAYLOAD,2023-12-25 09:08:18,15.08848461,0.0001626,53.2194,34.2949,94.2358,265.882,0.00017363,2.477e-05,0.0,0 STARLINK-3538,1 51996U 22025AS  23359.38077275  .00002477  00000-0  17363-3 0  9995,2 51996  53.2194  34.2949 0001626  94.2358 265.8820 15.08848461100864,6917.855,95.437,540.844,538.595,0.0
51996.0,STARLINK-3538,PAYLOAD,2023-12-25 23:26:47,15.08841814,0.0001845,53.2192,31.6199,121.356,238.7613,6.6152e-05,7.65e-06,0.0,0 STARLINK-3538,1 51996U 22025AS  23359.97693535  .00000765  00000-0  66152-4 0  9992,2 51996  53.2192  31.6199 0001845 121.3560 238.7613 15.08841814100954,6917.875,95.437,541.016,538.463,0.0
51996.0,STARLINK-3538,PAYLOAD,2023-12-26 08:59:06,15.08836544,0.0001593,53.2179,29.8346,90.3952,269.7223,2.1751e-06,-2.53e-06,0.0,0 STARLINK-3538,1 51996U 22025AS  23360.37438175 -.00000253  00000-0  21751-5 0  9995,2 51996  53.2179  29.8346 0001593  90.3952 269.7223 15.08836544101015,6917.891,95.438,540.858,538.654,0.0
51996.0,STARLINK-3538,PAYLOAD,2023-12-26 12:09:52,15.0884315,0.0001237,53.2178,29.2325,103.0603,257.0527,-3.0103e-05,-7.67e-06,0.0,0 STARLINK-3538,1 51996U 22025AS  23360.50685634 -.00000767  00000-0 -30103-4 0  9995,2 51996  53.2178  29.2325 0001237 103.0603 257.0527 15.08843150 99514,6917.871,95.437,540.592,538.88,0.0
51996.0,STARLINK-3538,PAYLOAD,2023-12-27 08:49:52,15.0885975,0.0001767,53.2183,25.3736,105.0865,255.0323,0.00033239,5.009e-05,0.0,0 STARLINK-3538,1 51996U 22025AS  23361.36796629  .00005009  00000-0  33239-3 0  9991,2 51996  53.2183  25.3736 0001767 105.0865 255.0323 15.08859750101163,6917.82,95.436,540.907,538.463,0.0
51996.0,STARLINK-3538,PAYLOAD,2023-12-28 11:51:26,15.08834067,0.0001664,53.218,20.314,105.4785,254.6391,-5.1858e-06,-3.71e-06,0.0,0 STARLINK-3538,1 51996U 22025AS  23362.49406096 -.00000371  00000-0 -51858-5 0  9990,2 51996  53.2180  20.3140 0001664 105.4785 254.6391 15.08834067101338,6917.899,95.438,540.915,538.612,0.0
51996.0,STARLINK-3538,PAYLOAD,2023-12-29 08:31:28,15.0883791,0.0001501,53.2189,16.4489,90.6573,269.4592,4.6835e-05,4.57e-06,0.0,0 STARLINK-3538,1 51996U 22025AS  23363.35518705  .00000457  00000-0  46835-4 0  9998,2 51996  53.2189  16.4489 0001501  90.6573 269.4592 15.08837910 99949,6917.887,95.438,540.79,538.713,0.0
51996.0,STARLINK-3538,PAYLOAD,2023-12-30 09:57:37,15.08844097,0.0001736,53.2193,11.6909,96.2473,263.8717,0.00021538,3.142e-05,0.0,0 STARLINK-3538,1 51996U 22025AS  23364.41502169  .00003142  00000-0  21538-3 0  9999,2 51996  53.2193  11.6909 0001736  96.2473 263.8717 15.08844097101629,6917.868,95.437,540.934,538.532,0.0
51996.0,STARLINK-3538,PAYLOAD,2023-12-31 06:37:39,15.08840565,0.0002031,53.2214,7.8142,98.1787,261.9435,5.0588e-05,5.17e-06,0.0,0 STARLINK-3538,1 51996U 22025AS  23365.27614979  .00000517  00000-0  50588-4 0  9998,2 51996  53.2214   7.8142 0002031  98.1787 261.9435 15.08840565101753,6917.879,95.438,541.149,538.339,0.0
51996.0,STARLINK-3538,PAYLOAD,2024-01-01 06:28:25,15.08853195,0.0001779,53.2197,3.3637,111.1729,248.9453,5.5034e-05,5.88e-06,0.0,0 STARLINK-3538,1 51996U 22025AS  24001.26973997  .00000588  00000-0  55034-4 0  9992,2 51996  53.2197   3.3637 0001779 111.1729 248.9453 15.08853195101908,6917.84,95.437,540.936,538.474,0.0
51996.0,STARLINK-3538,PAYLOAD,2024-01-02 03:08:26,15.08844009,0.0001756,53.2194,359.5013,114.9847,245.1327,6.3248e-05,7.19e-06,0.0,0 STARLINK-3538,1 51996U 22025AS  24002.13086482  .00000719  00000-0  63248-4 0  9995,2 51996  53.2194 359.5013 0001756 114.9847 245.1327 15.08844009102034,6917.868,95.437,540.948,538.518,0.0
51996.0,STARLINK-3538,PAYLOAD,2024-01-02 06:19:12,15.08845738,0.0001766,53.2188,358.9058,111.6727,248.4453,0.00010038,1.31e-05,0.0,0 STARLINK-3538,1 51996U 22025AS  24002.26334276  .00001310  00000-0  10038-3 0  9992,2 51996  53.2188 358.9058 0001766 111.6727 248.4453 15.08845738100530,6917.863,95.437,540.95,538.506,0.0
